NORAD_CAT_ID,OBJECT_NAME,OBJECT_TYPE,EPOCH,MEAN_MOTION,ECCENTRICITY,INCLINATION,RA_OF_ASC_NODE,ARG_OF_PERICENTER,MEAN_ANOMALY,BSTAR,MEAN_MOTION_DOT,MEAN_MOTION_DDOT,TLE_LINE0,TLE_LINE1,TLE_LINE2,SEMIMAJOR_AXIS,PERIOD,APOGEE,PERIGEE,DECAYED
53147.0,STARLINK-4094,PAYLOAD,2023-05-19 07:12:37,15.08847816,0.0001171,53.2166,97.2719,87.5397,272.5729,-5.6471e-05,-1.187e-05,0.0,0 STARLINK-4094,1 53147U 22083R   23139.30043668 -.00001187  00000-0 -56471-4 0  9999,2 53147  53.2166  97.2719 0001171  87.5397 272.5729 15.08847816 47057,6917.856,95.437,540.532,538.911,0.0
53147.0,STARLINK-4094,PAYLOAD,2023-05-20 03:52:38,15.08844886,0.0001396,53.2166,93.4064,94.6739,265.4412,0.00011861,1.6e-05,0.0,0 STARLINK-4094,1 53147U 22083R   23140.16155481  .00001600  00000-0  11861-3 0  9993,2 53147  53.2166  93.4064 0001396  94.6739 265.4412 15.08844886 47207,6917.865,95.437,540.696,538.765,0.0
53147.0,STARLINK-4094,PAYLOAD,2023-05-21 03:43:24,15.08849417,0.000118,53.2168,88.9458,96.5404,263.5722,0.0001329,1.828e-05,0.0,0 STARLINK-4094,1 53147U 22083R   23141.15514991  .00001828  00000-0  13290-3 0  9998,2 53147  53.2168  88.9458 0001180  96.5404 263.5722 15.08849417 47338,6917.852,95.437,540.533,538.9,0.0
53147.0,STARLINK-4094,PAYLOAD,2023-05-21 06:54:10,15.08852861,0.0001196,53.2166,88.3507,95.9593,264.1535,0.00016022,2.264e-05,0.0,0 STARLINK-4094,1 53147U 22083R   23141.28762684  .00002264  00000-0  16022-3 0  9997,2 53147  53.2166  88.3507 0001196  95.9593 264.1535 15.08852861 47374,6917.841,95.437,540.533,538.879,0.0
53147.0,STARLINK-4094,PAYLOAD,2023-05-21 19:37:17,15.08832603,0.0001798,53.2169,85.973,97.6439,262.4758,-5.4104e-06,-3.74e-06,0.0,0 STARLINK-4094,1 53147U 22083R   23141.81756681 -.00000374  00000-0 -54104-5 0  9993,2 53147  53.2169  85.9730 0001798  97.6439 262.4758 15.08832603 47453,6917.903,95.438,541.012,538.524,0.0
53147.0,STARLINK-4094,PAYLOAD,2023-05-22 00:23:27,15.08832516,0.0001466,53.2173,85.0794,114.0905,246.0241,-9.3645e-05,-1.778e-05,0.0,0 STARLINK-4094,1 53147U 22083R   23142.01628954 -.00001778  00000-0 -93645-4 0  9998,2 53147  53.2173  85.0794 0001466 114.0905 246.0241 15.08832516 47462,6917.903,95.438,540.782,538.754,0.0
53147.0,STARLINK-4094,PAYLOAD,2023-05-22 13:06:32,15.08837304,0.0001241,53.2175,82.7014,100.2863,259.8269,-1.0376e-06,-3.04e-06,0.0,0 STARLINK-4094,1 53147U 22083R   23142.54620663 -.00000304  00000-0 -10376-5 0  9990,2 53147  53.2175  82.7014 0001241 100.2863 259.8269 15.08837304 47567,6917.889,95.438,540.612,538.895,0.0
53147.0,STARLINK-4094,PAYLOAD,2023-05-23 03:25:00,15.08841343,0.0001301,53.2172,80.0246,98.7701,261.3438,6.0614e-05,6.77e-06,0.0,0 STARLINK-4094,1 53147U 22083R   23143.14236333  .00000677  00000-0  60614-4 0  9994,2 53147  53.2172  80.0246 0001301  98.7701 261.3438 15.08841343 47655,6917.876,95.437,540.641,538.841,0.0
53147.0,STARLINK-4094,PAYLOAD,2023-05-24 01:40:24,15.08840444,0.0001315,53.2177,75.8604,101.9111,258.2029,0.00024231,3.571e-05,0.0,0 STARLINK-4094,1 53147U 22083R   23144.06972790  .00003571  00000-0  24231-3 0  9990,2 53147  53.2177  75.8604 0001315 101.9111 258.2029 15.08840444 47772,6917.879,95.438,540.654,538.834,0.0
53147.0,STARLINK-4094,PAYLOAD,2023-05-24 03:15:47,15.08842408,0.0001265,53.2174,75.564,105.5671,254.5461,0.00028532,4.256e-05,0.0,0 STARLINK-4094,1 53147U 22083R   23144.13596753  .00004256  00000-0  28532-3 0  9998,2 53147  53.2174  75.5640 0001265 105.5671 254.5461 15.08842408 47806,6917.873,95.437,540.613,538.863,0.0
53147.0,STARLINK-4094,PAYLOAD,2023-05-25 22:11:11,15.0884736,0.0001074,53.2168,67.5371,91.9681,268.1434,6.9464e-05,8.18e-06,0.0,0 STARLINK-4094,1 53147U 22083R   23145.92444406  .00000818  00000-0  69464-4 0  9993,2 53147  53.2168  67.5371 0001074  91.9681 268.1434 15.08847360 48071,6917.858,95.437,540.466,538.98,0.0
53147.0,STARLINK-4094,PAYLOAD,2023-05-26 01:21:58,15.08847548,0.0001085,53.2174,66.9424,93.6062,266.5055,8.5612e-05,1.075e-05,0.0,0 STARLINK-4094,1 53147U 22083R   23146.05692344  .00001075  00000-0  85612-4 0  9993,2 53147  53.2174  66.9424 0001085  93.6062 266.5055 15.08847548 48073,6917.857,95.437,540.473,538.972,0.0
53147.0,STARLINK-4094,PAYLOAD,2023-05-26 18:51:13,15.08838992,0.0001226,53.2173,63.6708,96.4726,263.6406,6.133e-06,-1.9e-06,0.0,0 STARLINK-4094,1 53147U 22083R   23146.78556729 -.00000190  00000-0  61330-5 0  9999,2 53147  53.2173  63.6708 0001226  96.4726 263.6406 15.08838992 48189,6917.883,95.438,540.597,538.9,0.0
53147.0,STARLINK-4094,PAYLOAD,2023-05-26 22:01:59,15.08837473,0.0001198,53.2182,63.0755,99.2161,260.8966,2.6491e-06,-2.46e-06,0.0,0 STARLINK-4094,1 53147U 22083R   23146.91804990 -.00000246  00000-0  26491-5 0  9991,2 53147  53.2182  63.0755 0001198  99.2161 260.8966 15.08837473 48225,6917.888,95.438,540.582,538.924,0.0
53147.0,STARLINK-4094,PAYLOAD,2023-05-27 21:52:46,15.08839201,0.0001071,53.2184,58.6151,79.8559,280.2554,4.6241e-05,4.48e-06,0.0,0 STARLINK-4094,1 53147U 22083R   23147.91164786  .00000448  00000-0  46241-4 0  9991,2 53147  53.2184  58.6151 0001071  79.8559 280.2554 15.08839201 48378,6917.883,95.438,540.489,539.007,0.0
53147.0,STARLINK-4094,PAYLOAD,2023-05-28 01:03:32,15.08842994,0.0001077,53.2186,58.0221,83.8923,276.2192,7.3167e-05,8.77e-06,0.0,0 STARLINK-4094,1 53147U 22083R   23148.04412464  .00000877  00000-0  73167-4 0  9998,2 53147  53.2186  58.0221 0001077  83.8923 276.2192 15.08842994 48374,6917.871,95.437,540.481,538.991,0.0
53147.0,STARLINK-4094,PAYLOAD,2023-05-28 21:43:33,15.08834593,0.0001076,53.2187,54.1572,84.4306,275.6809,7.5915e-05,9.2e-06,0.0,0 STARLINK-4094,1 53147U 22083R   23148.90525188  .00000920  00000-0  75915-4 0  9993,2 53147  53.2187  54.1572 0001076  84.4306 275.6809 15.08834593 48523,6917.897,95.438,540.506,539.018,0.0
53147.0,STARLINK-4094,PAYLOAD,2023-05-29 00:54:19,15.08837056,0.0001064,53.2183,53.5623,84.3372,275.7741,9.4295e-05,1.213e-05,0.0,0 STARLINK-4094,1 53147U 22083R   23149.03773011  .00001213  00000-0  94295-4 0  9996,2 53147  53.2183  53.5623 0001064  84.3372 275.7741 15.08837056 48521,6917.889,95.438,540.49,539.018,0.0
53147.0,STARLINK-4094,PAYLOAD,2023-05-29 16:48:11,15.08804297,0.0001365,53.2185,50.59,103.127,256.9875,0.00047204,7.225e-05,0.0,0 STARLINK-4094,1 53147U 22083R   23149.70013291  .00007225  00000-0  47204-3 0  9993,2 53147  53.2185  50.5900 0001365 103.1270 256.9875 15.08804297 48620,6917.99,95.44,540.799,538.91,0.0
53147.0,STARLINK-4094,PAYLOAD,2023-05-30 02:20:30,15.08840605,0.0001052,53.2176,48.8034,94.4108,265.7004,-3.3198e-05,-8.16e-06,0.0,0 STARLINK-4094,1 53147U 22083R   23150.09757375 -.00000816  00000-0 -33198-4 0  9994,2 53147  53.2176  48.8034 0001052  94.4108 265.7004 15.08840605 48684,6917.879,95.438,540.471,539.016,0.0
53147.0,STARLINK-4094,PAYLOAD,2023-05-30 16:38:58,15.08852316,9.64e-05,53.2173,46.1255,89.13,270.9802,-7.555e-05,-1.49e-05,0.0,0 STARLINK-4094,1 53147U 22083R   23150.69373067 -.00001490  00000-0 -75550-4 0  9999,2 53147  53.2173  46.1255 0000964  89.1300 270.9802 15.08852316 48791,6917.843,95.437,540.375,539.041,0.0
53147.0,STARLINK-4094,PAYLOAD,2023-05-31 02:11:16,15.088505,0.0001076,53.218,44.3429,92.9273,267.1843,0.0001336,1.84e-05,0.0,0 STARLINK-4094,1 53147U 22083R   23151.09116184  .00001840  00000-0  13360-3 0  9996,2 53147  53.2180  44.3429 0001076  92.9273 267.1843 15.08850500 48839,6917.848,95.437,540.458,538.969,0.0
53147.0,STARLINK-4094,PAYLOAD,2023-05-31 16:29:45,15.08835896,0.0001005,53.2183,41.666,77.9548,282.1557,7.8818e-05,9.67e-06,0.0,0 STARLINK-4094,1 53147U 22083R   23151.68733377  .00000967  00000-0  78818-4 0  9999,2 53147  53.2183  41.6660 0001005  77.9548 282.1557 15.08835896 48929,6917.893,95.438,540.453,539.063,0.0
53147.0,STARLINK-4094,PAYLOAD,2023-05-31 21:15:54,15.08840759,0.0001226,53.2179,40.7736,93.915,266.1982,0.00011387,1.525e-05,0.0,0 STARLINK-4094,1 53147U 22083R   23151.88604976  .00001525  00000-0  11387-3 0  9991,2 53147  53.2179  40.7736 0001226  93.9150 266.1982 15.08840759 48973,6917.878,95.438,540.591,538.895,0.0
53147.0,STARLINK-4094,PAYLOAD,2023-05-31 22:51:17,15.08841222,0.0001272,53.2183,40.4768,79.1588,280.9548,0.00012268,1.665e-05,0.0,0 STARLINK-4094,1 53147U 22083R   23151.95228997  .00001665  00000-0  12268-3 0  9998,2 53147  53.2183  40.4768 0001272  79.1588 280.9548 15.08841222 48981,6917.877,95.437,540.622,538.862,0.0
53147.0,STARLINK-4094,PAYLOAD,2023-06-01 19:31:18,15.0884534,0.0001229,53.2177,36.6111,93.6801,266.4332,-9.4889e-07,-3.03e-06,0.0,0 STARLINK-4094,1 53147U 22083R   23152.81340905 -.00000303  00000-0 -94889-6 0  9990,2 53147  53.2177  36.6111 0001229  93.6801 266.4332 15.08845340 49115,6917.864,95.437,540.579,538.879,0.0
53147.0,STARLINK-4094,PAYLOAD,2023-06-02 01:52:50,15.08850759,0.0001347,53.2184,35.4202,96.8845,263.23,9.7779e-06,-1.32e-06,0.0,0 STARLINK-4094,1 53147U 22083R   23153.07836377 -.00000132  00000-0  97779-5 0  9991,2 53147  53.2184  35.4202 0001347  96.8845 263.2300 15.08850759 49137,6917.848,95.437,540.644,538.781,0.0
53147.0,STARLINK-4094,PAYLOAD,2023-06-02 22:32:52,15.08834117,0.0001359,53.2177,31.5559,90.9728,269.142,9.7639e-06,-1.33e-06,0.0,0 STARLINK-4094,1 53147U 22083R   23153.93949815 -.00000133  00000-0  97639-5 0  9994,2 53147  53.2177  31.5559 0001359  90.9728 269.1420 15.08834117 49283,6917.898,95.438,540.704,538.823,0.0
53147.0,STARLINK-4094,PAYLOAD,2023-06-03 01:43:38,15.08835736,0.0001367,53.2178,30.9609,91.1157,268.9992,2.0256e-05,3.4e-07,0.0,0 STARLINK-4094,1 53147U 22083R   23154.07197740  .00000034  00000-0  20256-4 0  9991,2 53147  53.2178  30.9609 0001367  91.1157 268.9992 15.08835736 49280,6917.893,95.438,540.704,538.813,0.0
53147.0,STARLINK-4094,PAYLOAD,2023-06-03 20:48:16,15.08844115,0.0001311,53.2181,27.3926,91.048,269.0663,7.112e-05,8.44e-06,0.0,0 STARLINK-4094,1 53147U 22083R   23154.86685275  .00000844  00000-0  71120-4 0  9998,2 53147  53.2181  27.3926 0001311  91.0480 269.0663 15.08844115 49427,6917.868,95.437,540.64,538.826,0.0
